ONEWEB-0249             
1 48967U 21060A   25227.46832462  .00000114  00000+0  26416-3 0  9993
2 48967  87.9028 289.7203 0001899  96.4161 263.7186 13.16593529199382
ONEWEB-0250             
1 48968U 21060B   25227.43421914  .00000040  00000+0  62240-4 0  9991
2 48968  87.9025 288.4846 0001035  99.4022 260.7231 13.25812229199705
ONEWEB-0252             
1 48970U 21060D   25227.57598912 -.00000089  00000+0 -26764-3 0  9997
2 48970  87.9028 289.6918 0002375  96.6108 263.5294 13.16592724199442
ONEWEB-0253             
1 48971U 21060E   25227.41290141  .00000051  00000+0  99904-4 0  9998
2 48971  87.9027 289.7277 0001964  89.5144 270.6212 13.16593000199352
ONEWEB-0254             
1 48972U 21060F   25227.57439568 -.00000061  00000+0 -19285-3 0  9990
2 48972  87.9031 289.6818 0001748  85.5699 274.5632 13.16595549199370
ONEWEB-0255             
1 48973U 21060G   25227.46040382  .00000066  00000+0  13825-3 0  9998
2 48973  87.9022 289.7336 0001876  88.9265 271.2081 13.16592904199436
ONEWEB-0256             
1 48974U 21060H   25227.41053233  .00000094  00000+0  21267-3 0  9993
2 48974  87.9023 289.7542 0002130  97.4336 262.7037 13.16594373199398
ONEWEB-0257             
1 48975U 21060J   25227.59498348 -.00000024  00000+0 -96134-4 0  9994
2 48975  87.9026 289.6850 0002040  90.3183 269.8181 13.16592840199378
